start=new Date('2021-10-14T00:00:00.000Z').valueOf();
sats=[{"GP_ID":"187067291","SITE":"AFETR","TLE_LINE2":"2 44953  53.0568 346.3757 0001048  86.2711 273.8398 15.06407658 99018","EPHEMERIS_TYPE":"0","INCLINATION":"53.0568","PERIOD":"95.592","PERIAPSIS":"546.464","ECCENTRICITY":"0.00010480","TIME_SYSTEM":"UTC","OBJECT_NAME":"STARLINK-1124","REV_AT_EPOCH":"9901","COUNTRY_CODE":"US","FILE":"3160689","NORAD_CAT_ID":"44953","RCS_SIZE":"LARGE","CLASSIFICATION_TYPE":"U","OBJECT_ID":"2020-001AR","DECAY_DATE":null,"ELEMENT_SET_NO":"999","MEAN_ELEMENT_THEORY":"SGP4","SEMIMAJOR_AXIS":"6925.325","ARG_OF_PERICENTER":"86.2711","CENTER_NAME":"EARTH","TLE_LINE1":"1 44953U 20001AR  21286.44205846  .00000339  00000-0  41629-4 0  9991","MEAN_ANOMALY":"273.8398","LAUNCH_DATE":"2020-01-07","MEAN_MOTION":"15.06407658","EPOCH":"2021-10-13T10:36:33.850944","MEAN_MOTION_DOT":"0.00000339","BSTAR":"0.00004162900000","MEAN_MOTION_DDOT":"0.0000000000000","OBJECT_TYPE":"PAYLOAD","RA_OF_ASC_NODE":"346.3757","REF_FRAME":"TEME","APOAPSIS":"547.916"},{"TIME_SYSTEM":"UTC","OBJECT_NAME":"STARLINK-1066","REV_AT_EPOCH":"9795","ECCENTRICITY":"0.00011970","PERIAPSIS":"546.383","PERIOD":"95.592","CLASSIFICATION_TYPE":"U","RCS_SIZE":"LARGE","FILE":"3160951","COUNTRY_CODE":"US","NORAD_CAT_ID":"44954","SITE":"AFETR","TLE_LINE2":"2 44954  53.0533 326.2697 0001197  76.6728 283.4395 15.06400414 97955","GP_ID":"187076088","EPHEMERIS_TYPE":"0","INCLINATION":"53.0533","MEAN_MOTION":"15.06400414","TLE_LINE1":"1 44954U 20001AS  21286.45590510  .00001437  00000-0  11537-3 0  9992","MEAN_ANOMALY":"283.4395","LAUNCH_DATE":"2020-01-07","OBJECT_TYPE":"PAYLOAD","RA_OF_ASC_NODE":"326.2697","MEAN_MOTION_DDOT":"0.0000000000000","APOAPSIS":"548.041","REF_FRAME":"TEME","EPOCH":"2021-10-13T10:56:30.200640","BSTAR":"0.00011537000000","MEAN_MOTION_DOT":"0.00001437","OBJECT_ID":"2020-001AS","DECAY_DATE":null,"ARG_OF_PERICENTER":"76.6728","SEMIMAJOR_AXIS":"6925.347","CENTER_NAME":"EARTH","MEAN_ELEMENT_THEORY":"SGP4","ELEMENT_SET_NO":"999"},{"MEAN_MOTION_DDOT":"0.0000000000000","RA_OF_ASC_NODE":"326.5373","OBJECT_TYPE":"PAYLOAD","REF_FRAME":"TEME","APOAPSIS":"548.169","EPOCH":"2021-10-13T09:31:35.689440","MEAN_MOTION_DOT":"0.00001523","BSTAR":"0.00012110000000","MEAN_MOTION":"15.06407613","TLE_LINE1":"1 44955U 20001AT  21286.39694085  .00001523  00000-0  12110-3 0  9992","MEAN_ANOMALY":"279.1117","LAUNCH_DATE":"2020-01-07","MEAN_ELEMENT_THEORY":"SGP4","ARG_OF_PERICENTER":"81.0032","SEMIMAJOR_AXIS":"6925.325","CENTER_NAME":"EARTH","ELEMENT_SET_NO":"999","OBJECT_ID":"2020-001AT","DECAY_DATE":null,"RCS_SIZE":"LARGE","CLASSIFICATION_TYPE":"U","COUNTRY_CODE":"US","FILE":"3160689","NORAD_CAT_ID":"44955","OBJECT_NAME":"STARLINK-1069","TIME_SYSTEM":"UTC","REV_AT_EPOCH":"9794","PERIOD":"95.592","ECCENTRICITY":"0.00014130","PERIAPSIS":"546.212","EPHEMERIS_TYPE":"0","INCLINATION":"53.0550","SITE":"AFETR","TLE_LINE2":"2 44955  53.0550 326.5373 0001413  81.0032 279.1117 15.06407613 97949","GP_ID":"187065790"},{"GP_ID":"187066040","SITE":"AFETR","TLE_LINE2":"2 44956  53.0544 326.5526 0001218  86.6278 273.4850 15.06417416 98000","EPHEMERIS_TYPE":"0","INCLINATION":"53.0544","PERIOD":"95.591","PERIAPSIS":"546.317","ECCENTRICITY":"0.00012180","TIME_SYSTEM":"UTC","OBJECT_NAME":"STARLINK-1070","REV_AT_EPOCH":"9800","COUNTRY_CODE":"US","FILE":"3160689","NORAD_CAT_ID":"44956","RCS_SIZE":"LARGE","CLASSIFICATION_TYPE":"U","OBJECT_ID":"2020-001AU","DECAY_DATE":null,"ELEMENT_SET_NO":"999","MEAN_ELEMENT_THEORY":"SGP4","CENTER_NAME":"EARTH","SEMIMAJOR_AXIS":"6925.295","ARG_OF_PERICENTER":"86.6278","MEAN_ANOMALY":"273.4850","TLE_LINE1":"1 44956U 20001AU  21286.39325378  .00004278  00000-0  30577-3 0  9996","LAUNCH_DATE":"2020-01-07","MEAN_MOTION":"15.06417416","EPOCH":"2021-10-13T09:26:17.126592","MEAN_MOTION_DOT":"0.00004278","BSTAR":"0.00030577000000","MEAN_MOTION_DDOT":"0.0000000000000","OBJECT_TYPE":"PAYLOAD","RA_OF_ASC_NODE":"326.5526","REF_FRAME":"TEME","APOAPSIS":"548.004"},{"OBJECT_ID":"2020-001AV","DECAY_DATE":null,"ELEMENT_SET_NO":"999","CENTER_NAME":"EARTH","SEMIMAJOR_AXIS":"6925.342","ARG_OF_PERICENTER":"82.0554","MEAN_ELEMENT_THEORY":"SGP4","TLE_LINE1":"1 44957U 20001AV  21286.48540294  .00000406  00000-0  46176-4 0  9995","MEAN_ANOMALY":"278.0583","LAUNCH_DATE":"2020-01-07","MEAN_MOTION":"15.06402177","EPOCH":"2021-10-13T11:38:58.814016","BSTAR":"0.00004617600000","MEAN_MOTION_DOT":"0.00000406","RA_OF_ASC_NODE":"326.1384","OBJECT_TYPE":"PAYLOAD","MEAN_MOTION_DDOT":"0.0000000000000","APOAPSIS":"548.111","REF_FRAME":"TEME","GP_ID":"187043091","SITE":"AFETR","TLE_LINE2":"2 44957  53.0556 326.1384 0001305  82.0554 278.0583 15.06402177 98019","EPHEMERIS_TYPE":"0","INCLINATION":"53.0556","PERIAPSIS":"546.303","ECCENTRICITY":"0.00013050","PERIOD":"95.592","OBJECT_NAME":"STARLINK-1074","TIME_SYSTEM":"UTC","REV_AT_EPOCH":"9801","FILE":"3160522","COUNTRY_CODE":"US","NORAD_CAT_ID":"44957","CLASSIFICATION_TYPE":"U","RCS_SIZE":"LARGE"},{"MEAN_MOTION":"15.06405218","LAUNCH_DATE":"2020-01-07","MEAN_ANOMALY":"283.6262","TLE_LINE1":"1 44959U 20001AX  21286.50014205  .00000863  00000-0  76819-4 0  9992","REF_FRAME":"TEME","APOAPSIS":"547.986","MEAN_MOTION_DDOT":"0.0000000000000","OBJECT_TYPE":"PAYLOAD","RA_OF_ASC_NODE":"326.0718","MEAN_MOTION_DOT":"0.00000863","BSTAR":"0.00007681900000","EPOCH":"2021-10-13T12:00:12.273120","DECAY_DATE":null,"OBJECT_ID":"2020-001AX","MEAN_ELEMENT_THEORY":"SGP4","SEMIMAJOR_AXIS":"6925.333","CENTER_NAME":"EARTH","ARG_OF_PERICENTER":"76.4853","ELEMENT_SET_NO":"999","REV_AT_EPOCH":"9801","TIME_SYSTEM":"UTC","OBJECT_NAME":"STARLINK-1076","PERIOD":"95.592","PERIAPSIS":"546.409","ECCENTRICITY":"0.00011390","RCS_SIZE":"LARGE","CLASSIFICATION_TYPE":"U","NORAD_CAT_ID":"44959","COUNTRY_CODE":"US","FILE":"3160510","TLE_LINE2":"2 44959  53.0557 326.0718 0001139  76.4853 283.6262 15.06405218 98011","SITE":"AFETR","GP_ID":"187043112","INCLINATION":"53.0557","EPHEMERIS_TYPE":"0"},{"EPHEMERIS_TYPE":"0","INCLINATION":"53.0553","SITE":"AFETR","TLE_LINE2":"2 44961  53.0553 326.0333 0001300  71.0382 289.0748 15.06406059 98025","GP_ID":"187043128","RCS_SIZE":"LARGE","CLASSIFICATION_TYPE":"U","COUNTRY_CODE":"US","FILE":"3160511","NORAD_CAT_ID":"44961","TIME_SYSTEM":"UTC","OBJECT_NAME":"STARLINK-1080","REV_AT_EPOCH":"9802","PERIOD":"95.592","ECCENTRICITY":"0.00013000","PERIAPSIS":"546.295","MEAN_ELEMENT_THEORY":"SGP4","SEMIMAJOR_AXIS":"6925.330","ARG_OF_PERICENTER":"71.0382","CENTER_NAME":"EARTH","ELEMENT_SET_NO":"999","OBJECT_ID":"2020-001AZ","DECAY_DATE":null,"MEAN_MOTION_DDOT":"0.0000000000000","OBJECT_TYPE":"PAYLOAD","RA_OF_ASC_NODE":"326.0333","REF_FRAME":"TEME","APOAPSIS":"548.095","EPOCH":"2021-10-13T12:10:48.842400","MEAN_MOTION_DOT":"0.00000400","BSTAR":"0.00004575100000","MEAN_MOTION":"15.06406059","TLE_LINE1":"1 44961U 20001AZ  21286.50750975  .00000400  00000-0  45751-4 0  9994","MEAN_ANOMALY":"289.0748","LAUNCH_DATE":"2020-01-07"},{"APOAPSIS":"543.043","REF_FRAME":"TEME","OBJECT_TYPE":"PAYLOAD","RA_OF_ASC_NODE":"322.6863","MEAN_MOTION_DDOT":"0.0000000000000","BSTAR":"0.00030095000000","MEAN_MOTION_DOT":"0.00004415","EPOCH":"2021-10-13T11:53:51.192960","MEAN_MOTION":"15.08131795","LAUNCH_DATE":"2020-01-07","MEAN_ANOMALY":"296.1669","TLE_LINE1":"1 44963U 20001BB  21286.49573140  .00004415  00000-0  30095-3 0  9995","SEMIMAJOR_AXIS":"6920.046","ARG_OF_PERICENTER":"63.9489","CENTER_NAME":"EARTH","MEAN_ELEMENT_THEORY":"SGP4","ELEMENT_SET_NO":"999","DECAY_DATE":null,"OBJECT_ID":"2020-001BB","CLASSIFICATION_TYPE":"U","RCS_SIZE":"LARGE","NORAD_CAT_ID":"44963","FILE":"3160511","COUNTRY_CODE":"US","REV_AT_EPOCH":"9877","TIME_SYSTEM":"UTC","OBJECT_NAME":"STARLINK-1085","PERIAPSIS":"540.779","ECCENTRICITY":"0.00016360","PERIOD":"95.482","INCLINATION":"53.0001","EPHEMERIS_TYPE":"0","TLE_LINE2":"2 44963  53.0001 322.6863 0001636  63.9489 296.1669 15.08131795 98772","SITE":"AFETR","GP_ID":"187043123"},{"MEAN_MOTION":"15.06401996","TLE_LINE1":"1 44964U 20001BC  21286.47065199  .00000994  00000-0  85602-4 0  9997","MEAN_ANOMALY":"281.5962","LAUNCH_DATE":"2020-01-07","RA_OF_ASC_NODE":"326.2064","OBJECT_TYPE":"PAYLOAD","MEAN_MOTION_DDOT":"0.0000000000000","APOAPSIS":"548.077","REF_FRAME":"TEME","EPOCH":"2021-10-13T11:17:44.331936","BSTAR":"0.00008560200000","MEAN_MOTION_DOT":"0.00000994","OBJECT_ID":"2020-001BC","DECAY_DATE":null,"SEMIMAJOR_AXIS":"6925.342","CENTER_NAME":"EARTH","ARG_OF_PERICENTER":"78.5167","MEAN_ELEMENT_THEORY":"SGP4","ELEMENT_SET_NO":"999","TIME_SYSTEM":"UTC","OBJECT_NAME":"STARLINK-1086","REV_AT_EPOCH":"9801","PERIAPSIS":"546.338","ECCENTRICITY":"0.00012550","PERIOD":"95.592","CLASSIFICATION_TYPE":"U","RCS_SIZE":"LARGE","FILE":"3160513","COUNTRY_CODE":"US","NORAD_CAT_ID":"44964","SITE":"AFETR","TLE_LINE2":"2 44964  53.0533 326.2064 0001255  78.5167 281.5962 15.06401996 98010","GP_ID":"187043163","EPHEMERIS_TYPE":"0","INCLINATION":"53.0533"},{"MEAN_ELEMENT_THEORY":"SGP4","SEMIMAJOR_AXIS":"6925.343","ARG_OF_PERICENTER":"90.1346","CENTER_NAME":"EARTH","ELEMENT_SET_NO":"999","DECAY_DATE":null,"OBJECT_ID":"2020-001BE","REF_FRAME":"TEME","APOAPSIS":"548.033","MEAN_MOTION_DDOT":"0.0000000000000","RA_OF_ASC_NODE":"326.0983","OBJECT_TYPE":"PAYLOAD","MEAN_MOTION_DOT":"0.00003858","BSTAR":"0.00027772000000","EPOCH":"2021-10-13T11:49:35.494752","MEAN_MOTION":"15.06401904","LAUNCH_DATE":"2020-01-07","MEAN_ANOMALY":"269.9779","TLE_LINE1":"1 44966U 20001BE  21286.49277193  .00003858  00000-0  27772-3 0  9995","INCLINATION":"53.0544","EPHEMERIS_TYPE":"0","TLE_LINE2":"2 44966  53.0544 326.0983 0001191  90.1346 269.9779 15.06401904 98015","SITE":"AFETR","GP_ID":"187043382","RCS_SIZE":"LARGE","CLASSIFICATION_TYPE":"U","NORAD_CAT_ID":"44966","COUNTRY_CODE":"US","FILE":"3160520","REV_AT_EPOCH":"9801","OBJECT_NAME":"STARLINK-1088","TIME_SYSTEM":"UTC","PERIOD":"95.592","PERIAPSIS":"546.383","ECCENTRICITY":"0.00011910"}];
